[{"OBJECT_NAME":"STARLINK-5535","OBJECT_ID":"2023-058AR","EPOCH":"2026-03-09T22:34:46.803936","MEAN_MOTION":15.05644673,"ECCENTRICITY":0.00019745,"INCLINATION":97.6052,"RA_OF_ASC_NODE":71.4563,"ARG_OF_PERICENTER":92.0293,"MEAN_ANOMALY":268.116,"EPHEMERIS_TYPE":0,"CLASSIFICATION_TYPE":"U","NORAD_CAT_ID":56356,"ELEMENT_SET_NO":999,"REV_AT_EPOCH":15823,"BSTAR":5.588258e-6,"MEAN_MOTION_DOT":2.0e-7,"MEAN_MOTION_DDOT":0},{"OBJECT_NAME":"CZ-6A DEB","OBJECT_ID":"2024-140ABG","EPOCH":"2026-03-09T16:43:29.524800","MEAN_MOTION":15.18896608,"ECCENTRICITY":0.00616087,"INCLINATION":89.2171,"RA_OF_ASC_NODE":295.9508,"ARG_OF_PERICENTER":79.2706,"MEAN_ANOMALY":281.5467,"EPHEMERIS_TYPE":0,"CLASSIFICATION_TYPE":"U","NORAD_CAT_ID":61498,"ELEMENT_SET_NO":999,"REV_AT_EPOCH":8006,"BSTAR":0.0048163661,"MEAN_MOTION_DOT":0.0010689,"MEAN_MOTION_DDOT":0}]
